{
  "type": "FeatureCollection",
  "features": [
    {
      "type": "Feature",
      "properties": {
        "norad_id": 19071,
        "name": "OSCAR 32",
        "group": "nnss",
        "lat": 67.35884459215765,
        "lon": 15.948146528319338,
        "alt_km": 1125.7910142574465,
        "timestamp": "2025-12-18T23:35:49.328798+00:00",
        "meta_object_name": "OSCAR 32",
        "meta_object_id": "1988-033B",
        "meta_epoch": "2025-12-18T14:46:20.663616",
        "meta_mean_motion": 13.27954918,
        "meta_eccentricity": 0.01887993,
        "meta_inclination": 90.3211,
        "meta_ra_of_asc_node": 16.707,
        "meta_arg_of_pericenter": 150.5041,
        "meta_mean_anomaly": 322.2522,
        "meta_ephemeris_type": 0,
        "meta_classification_type": "U",
        "meta_norad_cat_id": 19071,
        "meta_element_set_no": 999,
        "meta_rev_at_epoch": 82343,
        "meta_bstar": 0.00018389455,
        "meta_mean_motion_dot": 1.01e-06,
        "meta_mean_motion_ddot": 0,
        "tle_line1": "1 19071U 88033B   25352.61551694  .00000101  00000+0  18389-3 0  9997",
        "tle_line2": "2 19071  90.3211  16.7070 0188799 150.5041 322.2522 13.27954918823432"
      },
      "geometry": {
        "type": "Point",
        "coordinates": [
          15.948146528319338,
          67.35884459215765
        ]
      }
    },
    {
      "type": "Feature",
      "properties": {
        "norad_id": 19223,
        "name": "NOVA 2",
        "group": "nnss",
        "lat": 25.616264222902487,
        "lon": -101.74138896051413,
        "alt_km": 1193.1723733079998,
        "timestamp": "2025-12-18T23:35:49.328808+00:00",
        "meta_object_name": "NOVA 2",
        "meta_object_id": "1988-052A",
        "meta_epoch": "2025-12-18T11:58:58.766592",
        "meta_mean_motion": 13.22936382,
        "meta_eccentricity": 0.00300961,
        "meta_inclination": 89.9871,
        "meta_ra_of_asc_node": 78.2654,
        "meta_arg_of_pericenter": 1.0764,
        "meta_mean_anomaly": 9.6987,
        "meta_ephemeris_type": 0,
        "meta_classification_type": "U",
        "meta_norad_cat_id": 19223,
        "meta_element_set_no": 999,
        "meta_rev_at_epoch": 81024,
        "meta_bstar": 0.00014535403,
        "meta_mean_motion_dot": 7e-07,
        "meta_mean_motion_ddot": 0,
        "tle_line1": "1 19223U 88052A   25352.49929128  .00000070  00000+0  14535-3 0  9998",
        "tle_line2": "2 19223  89.9871  78.2654 0030096   1.0764   9.6987 13.22936382810242"
      },
      "geometry": {
        "type": "Point",
        "coordinates": [
          -101.74138896051413,
          25.616264222902487
        ]
      }
    },
    {
      "type": "Feature",
      "properties": {
        "norad_id": 19419,
        "name": "OSCAR 25",
        "group": "nnss",
        "lat": -46.767097283443455,
        "lon": 20.301069551744916,
        "alt_km": 1100.1801595886636,
        "timestamp": "2025-12-18T23:35:49.328827+00:00",
        "meta_object_name": "OSCAR 25",
        "meta_object_id": "1988-074A",
        "meta_epoch": "2025-12-18T13:56:01.747392",
        "meta_mean_motion": 13.42624451,
        "meta_eccentricity": 0.0094746,
        "meta_inclination": 90.0342,
        "meta_ra_of_asc_node": 20.2633,
        "meta_arg_of_pericenter": 228.9225,
        "meta_mean_anomaly": 298.3513,
        "meta_ephemeris_type": 0,
        "meta_classification_type": "U",
        "meta_norad_cat_id": 19419,
        "meta_element_set_no": 999,
        "meta_rev_at_epoch": 82718,
        "meta_bstar": 0.00017289494,
        "meta_mean_motion_dot": 1.09e-06,
        "meta_mean_motion_ddot": 0,
        "tle_line1": "1 19419U 88074A   25352.58057578  .00000109  00000+0  17289-3 0  9992",
        "tle_line2": "2 19419  90.0342  20.2633 0094746 228.9225 298.3513 13.42624451827189"
      },
      "geometry": {
        "type": "Point",
        "coordinates": [
          20.301069551744916,
          -46.767097283443455
        ]
      }
    },
    {
      "type": "Feature",
      "properties": {
        "norad_id": 19420,
        "name": "OSCAR 31",
        "group": "nnss",
        "lat": -14.76428976282642,
        "lon": -159.393812312402,
        "alt_km": 1042.2864269767606,
        "timestamp": "2025-12-18T23:35:49.328849+00:00",
        "meta_object_name": "OSCAR 31",
        "meta_object_id": "1988-074B",
        "meta_epoch": "2025-12-18T14:16:50.218752",
        "meta_mean_motion": 13.42585594,
        "meta_eccentricity": 0.00931008,
        "meta_inclination": 90.0356,
        "meta_ra_of_asc_node": 20.6142,
        "meta_arg_of_pericenter": 223.0134,
        "meta_mean_anomaly": 257.0166,
        "meta_ephemeris_type": 0,
        "meta_classification_type": "U",
        "meta_norad_cat_id": 19420,
        "meta_element_set_no": 999,
        "meta_rev_at_epoch": 82729,
        "meta_bstar": 0.0001474358,
        "meta_mean_motion_dot": 9.4e-07,
        "meta_mean_motion_ddot": 0,
        "tle_line1": "1 19420U 88074B   25352.59502568  .00000094  00000+0  14744-3 0  9995",
        "tle_line2": "2 19420  90.0356  20.6142 0093100 223.0134 257.0166 13.42585594827295"
      },
      "geometry": {
        "type": "Point",
        "coordinates": [
          -159.393812312402,
          -14.76428976282642
        ]
      }
    }
  ]
}